{
    "links": {
        "self": "http://www.neowsapp.com/rest/v1/neo/3843099?api_key=iIulBulltgU6a56xZRHN4H3l9WmuAYTsLGpBGhQ2"
    },
    "id": "3843099",
    "neo_reference_id": "3843099",
    "name": "(2019 NQ)",
    "designation": "2019 NQ",
    "nasa_jpl_url": "http://ssd.jpl.nasa.gov/sbdb.cgi?sstr=3843099",
    "absolute_magnitude_h": 26.6,
    "estimated_diameter": {
        "kilometers": {
            "estimated_diameter_min": 0.0127219879,
            "estimated_diameter_max": 0.0284472297
        },
        "meters": {
            "estimated_diameter_min": 12.7219878539,
            "estimated_diameter_max": 28.4472296503
        },
        "miles": {
            "estimated_diameter_min": 0.0079050743,
            "estimated_diameter_max": 0.0176762835
        },
        "feet": {
            "estimated_diameter_min": 41.7388066307,
            "estimated_diameter_max": 93.330808926
        }
    },
    "is_potentially_hazardous_asteroid": false,
    "close_approach_data": [
        {
            "close_approach_date": "2019-07-01",
            "close_approach_date_full": "2019-Jul-01 00:34",
            "epoch_date_close_approach": 1561941240000,
            "relative_velocity": {
                "kilometers_per_second": "7.6958316568",
                "kilometers_per_hour": "27704.9939643729",
                "miles_per_hour": "17214.8058330293"
            },
            "miss_distance": {
                "astronomical": "0.017272029",
                "lunar": "6.718819281",
                "kilometers": "2583858.74897823",
                "miles": "1605535.376950374"
            },
            "orbiting_body": "Earth"
        }
    ],
    "orbital_data": {
        "orbit_id": "5",
        "orbit_determination_date": "2019-07-16 06:15:38",
        "first_observation_date": "2019-07-02",
        "last_observation_date": "2019-07-14",
        "data_arc_in_days": 12,
        "observations_used": 50,
        "orbit_uncertainty": "8",
        "minimum_orbit_intersection": ".0105198",
        "jupiter_tisserand_invariant": "3.592",
        "epoch_osculation": "2458669.5",
        "eccentricity": ".5082547982950179",
        "semi_major_axis": "2.074830576140436",
        "inclination": "4.271544818156777",
        "ascending_node_longitude": "277.5311182544284",
        "orbital_period": "1091.622267394448",
        "perihelion_distance": "1.020287980167843",
        "perihelion_argument": "345.8573355372532",
        "aphelion_distance": "3.129373172113029",
        "perihelion_time": "2458652.814294109585",
        "mean_anomaly": "5.50268559003192",
        "mean_motion": ".3297844050573194",
        "equinox": "J2000",
        "orbit_class": {
            "orbit_class_type": "AMO",
            "orbit_class_description": "Near-Earth asteroid orbits similar to that of 1221 Amor",
            "orbit_class_range": "1.017 AU < q (perihelion) < 1.3 AU"
        }
    },
    "is_sentry_object": false
}